{
  "norad_id": 63707,
  "name": "STARLINK-33982",
  "history": [
    {
      "epoch": "2026-03-28T12:26:54.407328Z",
      "apogee_km": 476.1644495223236,
      "perigee_km": 474.2303014948675,
      "latitude_deg": 2.5295226745890108e-05,
      "longitude_deg": 119.34124633731446,
      "height_km": 475.95522978596256,
      "semi_major_axis_km": 6853.334375508595,
      "eccentricity": 0.00014111,
      "inclination_deg": 53.1604,
      "raan_deg": 132.0059,
      "arg_perigee_deg": 81.6708,
      "mean_anomaly_deg": 278.4453,
      "mean_motion_rev_day": 15.30205926
    }
  ]
}